STARLINK-32181          
1 60349U 24136W   25299.82382735  .00000005  00000+0  12285-4 0  9999
2 60349  53.1622 337.1311 0001276  98.8017 261.3128 15.30188177 69178
STARLINK-32076          
1 60350U 24136X   25299.82700532 -.00003439  00000+0 -10416-3 0  9999
2 60350  53.1619 337.1506 0001249  97.1140 263.0002 15.30166883 69171
STARLINK-32097          
1 60351U 24136Y   25299.42877309 -.00000186  00000+0  58498-5 0  9992
2 60351  53.1615 338.9304 0001329  98.5484 261.5668 15.30190007 69118
STARLINK-32285          
1 60355U 24138A   25299.99890977 -.00002905  00000+0 -85981-4 0  9994
2 60355  53.1615 210.2553 0001452  79.2880 280.8284 15.30207382 70163
STARLINK-32278          
1 60356U 24138B   25299.99585418 -.00003061  00000+0 -91237-4 0  9991
2 60356  53.1620 210.9336 0001145  90.2958 269.8174 15.30207565 70151
STARLINK-32287          
1 60358U 24138D   25300.05801080  .00000281  00000+0  21603-4 0  9998
2 60358  53.1604 210.6248 0000819  83.4013 276.7081 15.30190316 70167
STARLINK-32290          
1 60359U 24138E   25299.99480502 -.00001364  00000+0 -33939-4 0  9991
2 60359  53.1585 210.9379 0001337  83.3115 276.8038 15.30196490 51185
STARLINK-32275          
1 60360U 24138F   25300.03057343  .00001772  00000+0  71951-4 0  9991
2 60360  53.1588 210.4475 0001174  70.7018 289.4110 15.30189110 70164
STARLINK-32227          
1 60361U 24138G   25300.05378459  .00000781  00000+0  38482-4 0  9999
2 60361  53.1604 210.5840 0001170  89.0380 271.0755 15.30195962 70177
STARLINK-32256          
1 60362U 24138H   25300.05906211  .00001298  00000+0  55942-4 0  9997
2 60362  53.1595 210.6162 0000872 102.2057 257.9041 15.30194206 70151
STARLINK-32267          
1 60363U 24138J   25300.04850984  .00001109  00000+0  49563-4 0  9995
2 60363  53.1606 210.5597 0001325  84.0043 276.1109 15.30195509 70168
STARLINK-32270          
1 60364U 24138K   25300.04006761  .00003383  00000+0  12629-3 0  9990
2 60364  53.1591 210.5079 0001378  87.2853 272.8305 15.30197481 70060
STARLINK-32188          
1 60365U 24138L   25300.03373730  .00002796  00000+0  10653-3 0  9995
2 60365  53.1613 210.4652 0001321  79.1121 281.0028 15.30184554 70160
STARLINK-32230          
1 60366U 24138M   25300.04639901  .00001316  00000+0  56549-4 0  9994
2 60366  53.1608 210.5473 0001331  76.5061 283.6088 15.30195637 70160
STARLINK-32243          
1 60367U 24138N   25300.10116177  .00004584  00000+0  16687-3 0  9995
2 60367  53.1604 210.1738 0001302  69.6557 290.4584 15.30184842 70172
STARLINK-32271          
1 60368U 24138P   25300.05589508  .00001033  00000+0  46986-4 0  9994
2 60368  53.1601 210.6076 0001203  87.6586 272.4553 15.30196552 70168
