[{"OBJECT_NAME":"STARLINK-32181","OBJECT_ID":"2024-136W","EPOCH":"2025-10-26T19:46:18.683040","MEAN_MOTION":15.30188177,"ECCENTRICITY":0.0001276,"INCLINATION":53.1622,"RA_OF_ASC_NODE":337.1311,"ARG_OF_PERICENTER":98.8017,"MEAN_ANOMALY":261.3128,"EPHEMERIS_TYPE":0,"CLASSIFICATION_TYPE":"U","NORAD_CAT_ID":60349,"ELEMENT_SET_NO":999,"REV_AT_EPOCH":6917,"BSTAR":1.2285e-5,"MEAN_MOTION_DOT":5.0e-8,"MEAN_MOTION_DDOT":0},{"OBJECT_NAME":"STARLINK-32076","OBJECT_ID":"2024-136X","EPOCH":"2025-10-26T19:50:53.259648","MEAN_MOTION":15.30166883,"ECCENTRICITY":0.0001249,"INCLINATION":53.1619,"RA_OF_ASC_NODE":337.1506,"ARG_OF_PERICENTER":97.114,"MEAN_ANOMALY":263.0002,"EPHEMERIS_TYPE":0,"CLASSIFICATION_TYPE":"U","NORAD_CAT_ID":60350,"ELEMENT_SET_NO":999,"REV_AT_EPOCH":6917,"BSTAR":-0.00010416,"MEAN_MOTION_DOT":-3.439e-5,"MEAN_MOTION_DDOT":0},{"OBJECT_NAME":"STARLINK-32097","OBJECT_ID":"2024-136Y","EPOCH":"2025-10-26T10:17:25.994976","MEAN_MOTION":15.30190007,"ECCENTRICITY":0.00013294,"INCLINATION":53.1615,"RA_OF_ASC_NODE":338.9304,"ARG_OF_PERICENTER":98.5484,"MEAN_ANOMALY":261.5668,"EPHEMERIS_TYPE":0,"CLASSIFICATION_TYPE":"U","NORAD_CAT_ID":60351,"ELEMENT_SET_NO":999,"REV_AT_EPOCH":6911,"BSTAR":5.849778e-6,"MEAN_MOTION_DOT":-1.86e-6,"MEAN_MOTION_DDOT":0},{"OBJECT_NAME":"STARLINK-32285","OBJECT_ID":"2024-138A","EPOCH":"2025-10-26T23:58:25.804128","MEAN_MOTION":15.30207382,"ECCENTRICITY":0.00014524,"INCLINATION":53.1615,"RA_OF_ASC_NODE":210.2553,"ARG_OF_PERICENTER":79.288,"MEAN_ANOMALY":280.8284,"EPHEMERIS_TYPE":0,"CLASSIFICATION_TYPE":"U","NORAD_CAT_ID":60355,"ELEMENT_SET_NO":999,"REV_AT_EPOCH":7016,"BSTAR":-8.5980845e-5,"MEAN_MOTION_DOT":-2.905e-5,"MEAN_MOTION_DDOT":0},{"OBJECT_NAME":"STARLINK-32278","OBJECT_ID":"2024-138B","EPOCH":"2025-10-26T23:54:01.801152","MEAN_MOTION":15.30207565,"ECCENTRICITY":0.00011454,"INCLINATION":53.162,"RA_OF_ASC_NODE":210.9336,"ARG_OF_PERICENTER":90.2958,"MEAN_ANOMALY":269.8174,"EPHEMERIS_TYPE":0,"CLASSIFICATION_TYPE":"U","NORAD_CAT_ID":60356,"ELEMENT_SET_NO":999,"REV_AT_EPOCH":7015,"BSTAR":-9.1237374e-5,"MEAN_MOTION_DOT":-3.061e-5,"MEAN_MOTION_DDOT":0},{"OBJECT_NAME":"STARLINK-32287","OBJECT_ID":"2024-138D","EPOCH":"2025-10-27T01:23:32.133120","MEAN_MOTION":15.30190316,"ECCENTRICITY":8.196e-5,"INCLINATION":53.1604,"RA_OF_ASC_NODE":210.6248,"ARG_OF_PERICENTER":83.4013,"MEAN_ANOMALY":276.7081,"EPHEMERIS_TYPE":0,"CLASSIFICATION_TYPE":"U","NORAD_CAT_ID":60358,"ELEMENT_SET_NO":999,"REV_AT_EPOCH":7016,"BSTAR":2.1603324e-5,"MEAN_MOTION_DOT":2.81e-6,"MEAN_MOTION_DDOT":0},{"OBJECT_NAME":"STARLINK-32290","OBJECT_ID":"2024-138E","EPOCH":"2025-10-26T23:52:31.153728","MEAN_MOTION":15.3019649,"ECCENTRICITY":0.0001337,"INCLINATION":53.1585,"RA_OF_ASC_NODE":210.9379,"ARG_OF_PERICENTER":83.3115,"MEAN_ANOMALY":276.8038,"EPHEMERIS_TYPE":0,"CLASSIFICATION_TYPE":"U","NORAD_CAT_ID":60359,"ELEMENT_SET_NO":999,"REV_AT_EPOCH":5118,"BSTAR":-3.3939332e-5,"MEAN_MOTION_DOT":-1.364e-5,"MEAN_MOTION_DDOT":0},{"OBJECT_NAME":"STARLINK-32275","OBJECT_ID":"2024-138F","EPOCH":"2025-10-27T00:44:01.544352","MEAN_MOTION":15.3018911,"ECCENTRICITY":0.00011748,"INCLINATION":53.1588,"RA_OF_ASC_NODE":210.4475,"ARG_OF_PERICENTER":70.7018,"MEAN_ANOMALY":289.411,"EPHEMERIS_TYPE":0,"CLASSIFICATION_TYPE":"U","NORAD_CAT_ID":60360,"ELEMENT_SET_NO":999,"REV_AT_EPOCH":7016,"BSTAR":7.1951013e-5,"MEAN_MOTION_DOT":1.772e-5,"MEAN_MOTION_DDOT":0},{"OBJECT_NAME":"STARLINK-32227","OBJECT_ID":"2024-138G","EPOCH":"2025-10-27T01:17:26.988576","MEAN_MOTION":15.30195962,"ECCENTRICITY":0.00011707,"INCLINATION":53.1604,"RA_OF_ASC_NODE":210.584,"ARG_OF_PERICENTER":89.038,"MEAN_ANOMALY":271.0755,"EPHEMERIS_TYPE":0,"CLASSIFICATION_TYPE":"U","NORAD_CAT_ID":60361,"ELEMENT_SET_NO":999,"REV_AT_EPOCH":7017,"BSTAR":3.8481808e-5,"MEAN_MOTION_DOT":7.81e-6,"MEAN_MOTION_DDOT":0},{"OBJECT_NAME":"STARLINK-32256","OBJECT_ID":"2024-138H","EPOCH":"2025-10-27T01:25:02.966304","MEAN_MOTION":15.30194206,"ECCENTRICITY":8.723e-5,"INCLINATION":53.1595,"RA_OF_ASC_NODE":210.6162,"ARG_OF_PERICENTER":102.2057,"MEAN_ANOMALY":257.9041,"EPHEMERIS_TYPE":0,"CLASSIFICATION_TYPE":"U","NORAD_CAT_ID":60362,"ELEMENT_SET_NO":999,"REV_AT_EPOCH":7015,"BSTAR":5.5942056e-5,"MEAN_MOTION_DOT":1.298e-5,"MEAN_MOTION_DDOT":0},{"OBJECT_NAME":"STARLINK-32267","OBJECT_ID":"2024-138J","EPOCH":"2025-10-27T01:09:51.250176","MEAN_MOTION":15.30195509,"ECCENTRICITY":0.00013252,"INCLINATION":53.1606,"RA_OF_ASC_NODE":210.5597,"ARG_OF_PERICENTER":84.0043,"MEAN_ANOMALY":276.1109,"EPHEMERIS_TYPE":0,"CLASSIFICATION_TYPE":"U","NORAD_CAT_ID":60363,"ELEMENT_SET_NO":999,"REV_AT_EPOCH":7016,"BSTAR":4.9562509e-5,"MEAN_MOTION_DOT":1.109e-5,"MEAN_MOTION_DDOT":0},{"OBJECT_NAME":"STARLINK-32270","OBJECT_ID":"2024-138K","EPOCH":"2025-10-27T00:57:41.841504","MEAN_MOTION":15.30197481,"ECCENTRICITY":0.00013786,"INCLINATION":53.1591,"RA_OF_ASC_NODE":210.5079,"ARG_OF_PERICENTER":87.2853,"MEAN_ANOMALY":272.8305,"EPHEMERIS_TYPE":0,"CLASSIFICATION_TYPE":"U","NORAD_CAT_ID":60364,"ELEMENT_SET_NO":999,"REV_AT_EPOCH":7006,"BSTAR":0.00012628875,"MEAN_MOTION_DOT":3.383e-5,"MEAN_MOTION_DDOT":0},{"OBJECT_NAME":"STARLINK-32188","OBJECT_ID":"2024-138L","EPOCH":"2025-10-27T00:48:34.902720","MEAN_MOTION":15.30184554,"ECCENTRICITY":0.00013212,"INCLINATION":53.1613,"RA_OF_ASC_NODE":210.4652,"ARG_OF_PERICENTER":79.1121,"MEAN_ANOMALY":281.0028,"EPHEMERIS_TYPE":0,"CLASSIFICATION_TYPE":"U","NORAD_CAT_ID":60365,"ELEMENT_SET_NO":999,"REV_AT_EPOCH":7016,"BSTAR":0.00010653106,"MEAN_MOTION_DOT":2.796e-5,"MEAN_MOTION_DDOT":0},{"OBJECT_NAME":"STARLINK-32230","OBJECT_ID":"2024-138M","EPOCH":"2025-10-27T01:06:48.874464","MEAN_MOTION":15.30195637,"ECCENTRICITY":0.00013318,"INCLINATION":53.1608,"RA_OF_ASC_NODE":210.5473,"ARG_OF_PERICENTER":76.5061,"MEAN_ANOMALY":283.6088,"EPHEMERIS_TYPE":0,"CLASSIFICATION_TYPE":"U","NORAD_CAT_ID":60366,"ELEMENT_SET_NO":999,"REV_AT_EPOCH":7016,"BSTAR":5.6548658e-5,"MEAN_MOTION_DOT":1.316e-5,"MEAN_MOTION_DDOT":0},{"OBJECT_NAME":"STARLINK-32243","OBJECT_ID":"2024-138N","EPOCH":"2025-10-27T02:25:40.376928","MEAN_MOTION":15.30184842,"ECCENTRICITY":0.0001302,"INCLINATION":53.1604,"RA_OF_ASC_NODE":210.1738,"ARG_OF_PERICENTER":69.6557,"MEAN_ANOMALY":290.4584,"EPHEMERIS_TYPE":0,"CLASSIFICATION_TYPE":"U","NORAD_CAT_ID":60367,"ELEMENT_SET_NO":999,"REV_AT_EPOCH":7017,"BSTAR":0.00016687231,"MEAN_MOTION_DOT":4.584e-5,"MEAN_MOTION_DDOT":0},{"OBJECT_NAME":"STARLINK-32271","OBJECT_ID":"2024-138P","EPOCH":"2025-10-27T01:20:29.334912","MEAN_MOTION":15.30196552,"ECCENTRICITY":0.00012037,"INCLINATION":53.1601,"RA_OF_ASC_NODE":210.6076,"ARG_OF_PERICENTER":87.6586,"MEAN_ANOMALY":272.4553,"EPHEMERIS_TYPE":0,"CLASSIFICATION_TYPE":"U","NORAD_CAT_ID":60368,"ELEMENT_SET_NO":999,"REV_AT_EPOCH":7016,"BSTAR":4.6986261e-5,"MEAN_MOTION_DOT":1.033e-5,"MEAN_MOTION_DDOT":0}]
